STARLINK-5094           
1 53977U 22125P   26078.64519869  .00000298  00000+0  36804-4 0  9997
2 53977  53.2163 174.5414 0001090  78.1614 281.9500 15.08837339190895
STARLINK-5148           
1 53978U 22125Q   26078.56052670 -.00001890  00000+0 -10066-3 0  9993
2 53978  53.2170 174.7234 0001110  82.2833 277.8286 15.08842776190883
STARLINK-5123           
1 53979U 22125R   26079.23030087 -.00000759  00000+0 -29606-4 0  9991
2 53979  53.2163 171.7944 0000891  88.4370 271.6724 15.08842129190982
STARLINK-5133           
1 53980U 22125S   26078.40962310 -.00000201  00000+0  54587-5 0  9992
2 53980  53.2153 175.2083 0001221  92.1349 267.9783 15.08840013190862
STARLINK-5149           
1 53981U 22125T   26079.20405120  .00000130  00000+0  26231-4 0  9997
2 53981  53.2146 156.6959 0001389  86.4882 273.6269 15.08840111191192
STARLINK-5120           
1 53982U 22125U   26078.43772574 -.00000484  00000+0 -12304-4 0  9992
2 53982  53.2144 170.3974 0001170  75.7277 284.3845 15.08836497190929
STARLINK-5142           
1 53984U 22125W   26078.64749913 -.00000899  00000+0 -38401-4 0  9994
2 53984  53.2202 169.5743 0001268  87.0556 273.0581 15.08840875190965
STARLINK-5147           
1 53985U 22125X   26078.65486491  .00000400  00000+0  43225-4 0  9991
2 53985  53.2166 169.6184 0001348  95.8755 264.2391 15.08841694190963
STARLINK-5119           
1 53986U 22125Y   26078.60052085  .00000361  00000+0  40763-4 0  9995
2 53986  53.2158 159.3106 0001225  78.7773 281.3357 15.08838290191094
STARLINK-5113           
1 53988U 22125AA  26078.64380767  .00000845  00000+0  71188-4 0  9994
2 53988  53.2137 169.5505 0001174  88.7842 271.3285 15.08844230190954
STARLINK-5118           
1 53991U 22125AD  26079.22614904  .00000288  00000+0  36170-4 0  9999
2 53991  53.2167 156.7532 0001274  94.7106 265.4032 15.08838890191185
STARLINK-5108           
1 53992U 22125AE  26079.22892051  .00000049  00000+0  21134-4 0  9990
2 53992  53.2176 166.8057 0001093  90.3530 269.7587 15.08838087191047
STARLINK-5121           
1 53993U 22125AF  26078.67551536 -.00000310  00000+0 -14242-5 0  9995
2 53993  53.2157 164.0455 0001000  79.1263 280.9842 15.08835551191036
STARLINK-5125           
1 53994U 22125AG  26078.55546101  .00000984  00000+0  79893-4 0  9992
2 53994  53.2162 169.7094 0001283  92.7970 267.3169 15.08840536190953
STARLINK-5097           
1 53995U 22125AH  26079.22523502  .00001138  00000+0  89574-4 0  9997
2 53995  53.2165 166.7853 0000921  92.1882 267.9215 15.08839876191045
STARLINK-5131           
1 53996U 22125AJ  26079.21418117  .00000228  00000+0  32401-4 0  9998
2 53996  53.2168 166.7146 0001184  92.0416 268.0711 15.08836067191051
