[{"OBJECT_NAME":"STARLINK-5094","OBJECT_ID":"2022-125P","EPOCH":"2026-03-19T15:29:05.166816","MEAN_MOTION":15.08837339,"ECCENTRICITY":0.00010902,"INCLINATION":53.2163,"RA_OF_ASC_NODE":174.5414,"ARG_OF_PERICENTER":78.1614,"MEAN_ANOMALY":281.95,"EPHEMERIS_TYPE":0,"CLASSIFICATION_TYPE":"U","NORAD_CAT_ID":53977,"ELEMENT_SET_NO":999,"REV_AT_EPOCH":19089,"BSTAR":3.6804249e-5,"MEAN_MOTION_DOT":2.98e-6,"MEAN_MOTION_DDOT":0},{"OBJECT_NAME":"STARLINK-5148","OBJECT_ID":"2022-125Q","EPOCH":"2026-03-19T13:27:09.506880","MEAN_MOTION":15.08842776,"ECCENTRICITY":0.000111,"INCLINATION":53.217,"RA_OF_ASC_NODE":174.7234,"ARG_OF_PERICENTER":82.2833,"MEAN_ANOMALY":277.8286,"EPHEMERIS_TYPE":0,"CLASSIFICATION_TYPE":"U","NORAD_CAT_ID":53978,"ELEMENT_SET_NO":999,"REV_AT_EPOCH":19088,"BSTAR":-0.00010066164,"MEAN_MOTION_DOT":-1.89e-5,"MEAN_MOTION_DDOT":0},{"OBJECT_NAME":"STARLINK-5123","OBJECT_ID":"2022-125R","EPOCH":"2026-03-20T05:31:37.995168","MEAN_MOTION":15.08842129,"ECCENTRICITY":8.91e-5,"INCLINATION":53.2163,"RA_OF_ASC_NODE":171.7944,"ARG_OF_PERICENTER":88.437,"MEAN_ANOMALY":271.6724,"EPHEMERIS_TYPE":0,"CLASSIFICATION_TYPE":"U","NORAD_CAT_ID":53979,"ELEMENT_SET_NO":999,"REV_AT_EPOCH":19098,"BSTAR":-2.9606e-5,"MEAN_MOTION_DOT":-7.59e-6,"MEAN_MOTION_DDOT":0},{"OBJECT_NAME":"STARLINK-5133","OBJECT_ID":"2022-125S","EPOCH":"2026-03-19T09:49:51.435840","MEAN_MOTION":15.08840013,"ECCENTRICITY":0.00012211,"INCLINATION":53.2153,"RA_OF_ASC_NODE":175.2083,"ARG_OF_PERICENTER":92.1349,"MEAN_ANOMALY":267.9783,"EPHEMERIS_TYPE":0,"CLASSIFICATION_TYPE":"U","NORAD_CAT_ID":53980,"ELEMENT_SET_NO":999,"REV_AT_EPOCH":19086,"BSTAR":5.458681e-6,"MEAN_MOTION_DOT":-2.01e-6,"MEAN_MOTION_DDOT":0},{"OBJECT_NAME":"STARLINK-5149","OBJECT_ID":"2022-125T","EPOCH":"2026-03-20T04:53:50.023680","MEAN_MOTION":15.08840111,"ECCENTRICITY":0.0001389,"INCLINATION":53.2146,"RA_OF_ASC_NODE":156.6959,"ARG_OF_PERICENTER":86.4882,"MEAN_ANOMALY":273.6269,"EPHEMERIS_TYPE":0,"CLASSIFICATION_TYPE":"U","NORAD_CAT_ID":53981,"ELEMENT_SET_NO":999,"REV_AT_EPOCH":19119,"BSTAR":2.6231e-5,"MEAN_MOTION_DOT":1.3e-6,"MEAN_MOTION_DDOT":0},{"OBJECT_NAME":"STARLINK-5120","OBJECT_ID":"2022-125U","EPOCH":"2026-03-19T10:30:19.503936","MEAN_MOTION":15.08836497,"ECCENTRICITY":0.00011707,"INCLINATION":53.2144,"RA_OF_ASC_NODE":170.3974,"ARG_OF_PERICENTER":75.7277,"MEAN_ANOMALY":284.3845,"EPHEMERIS_TYPE":0,"CLASSIFICATION_TYPE":"U","NORAD_CAT_ID":53982,"ELEMENT_SET_NO":999,"REV_AT_EPOCH":19092,"BSTAR":-1.2304414e-5,"MEAN_MOTION_DOT":-4.84e-6,"MEAN_MOTION_DDOT":0},{"OBJECT_NAME":"STARLINK-5142","OBJECT_ID":"2022-125W","EPOCH":"2026-03-19T15:32:23.924832","MEAN_MOTION":15.08840875,"ECCENTRICITY":0.0001268,"INCLINATION":53.2202,"RA_OF_ASC_NODE":169.5743,"ARG_OF_PERICENTER":87.0556,"MEAN_ANOMALY":273.0581,"EPHEMERIS_TYPE":0,"CLASSIFICATION_TYPE":"U","NORAD_CAT_ID":53984,"ELEMENT_SET_NO":999,"REV_AT_EPOCH":19096,"BSTAR":-3.8400827e-5,"MEAN_MOTION_DOT":-8.99e-6,"MEAN_MOTION_DDOT":0},{"OBJECT_NAME":"STARLINK-5147","OBJECT_ID":"2022-125X","EPOCH":"2026-03-19T15:43:00.328224","MEAN_MOTION":15.08841694,"ECCENTRICITY":0.00013486,"INCLINATION":53.2166,"RA_OF_ASC_NODE":169.6184,"ARG_OF_PERICENTER":95.8755,"MEAN_ANOMALY":264.2391,"EPHEMERIS_TYPE":0,"CLASSIFICATION_TYPE":"U","NORAD_CAT_ID":53985,"ELEMENT_SET_NO":999,"REV_AT_EPOCH":19096,"BSTAR":4.3225083e-5,"MEAN_MOTION_DOT":4.0e-6,"MEAN_MOTION_DDOT":0},{"OBJECT_NAME":"STARLINK-5119","OBJECT_ID":"2022-125Y","EPOCH":"2026-03-19T14:24:45.001440","MEAN_MOTION":15.0883829,"ECCENTRICITY":0.0001225,"INCLINATION":53.2158,"RA_OF_ASC_NODE":159.3106,"ARG_OF_PERICENTER":78.7773,"MEAN_ANOMALY":281.3357,"EPHEMERIS_TYPE":0,"CLASSIFICATION_TYPE":"U","NORAD_CAT_ID":53986,"ELEMENT_SET_NO":999,"REV_AT_EPOCH":19109,"BSTAR":4.076328e-5,"MEAN_MOTION_DOT":3.61e-6,"MEAN_MOTION_DDOT":0},{"OBJECT_NAME":"STARLINK-5113","OBJECT_ID":"2022-125AA","EPOCH":"2026-03-19T15:27:04.982688","MEAN_MOTION":15.0884423,"ECCENTRICITY":0.0001174,"INCLINATION":53.2137,"RA_OF_ASC_NODE":169.5505,"ARG_OF_PERICENTER":88.7842,"MEAN_ANOMALY":271.3285,"EPHEMERIS_TYPE":0,"CLASSIFICATION_TYPE":"U","NORAD_CAT_ID":53988,"ELEMENT_SET_NO":999,"REV_AT_EPOCH":19095,"BSTAR":7.1188e-5,"MEAN_MOTION_DOT":8.45e-6,"MEAN_MOTION_DDOT":0},{"OBJECT_NAME":"STARLINK-5118","OBJECT_ID":"2022-125AD","EPOCH":"2026-03-20T05:25:39.277056","MEAN_MOTION":15.0883889,"ECCENTRICITY":0.0001274,"INCLINATION":53.2167,"RA_OF_ASC_NODE":156.7532,"ARG_OF_PERICENTER":94.7106,"MEAN_ANOMALY":265.4032,"EPHEMERIS_TYPE":0,"CLASSIFICATION_TYPE":"U","NORAD_CAT_ID":53991,"ELEMENT_SET_NO":999,"REV_AT_EPOCH":19118,"BSTAR":3.617e-5,"MEAN_MOTION_DOT":2.88e-6,"MEAN_MOTION_DDOT":0},{"OBJECT_NAME":"STARLINK-5108","OBJECT_ID":"2022-125AE","EPOCH":"2026-03-20T05:29:38.732064","MEAN_MOTION":15.08838087,"ECCENTRICITY":0.0001093,"INCLINATION":53.2176,"RA_OF_ASC_NODE":166.8057,"ARG_OF_PERICENTER":90.353,"MEAN_ANOMALY":269.7587,"EPHEMERIS_TYPE":0,"CLASSIFICATION_TYPE":"U","NORAD_CAT_ID":53992,"ELEMENT_SET_NO":999,"REV_AT_EPOCH":19104,"BSTAR":2.1134e-5,"MEAN_MOTION_DOT":4.9e-7,"MEAN_MOTION_DDOT":0},{"OBJECT_NAME":"STARLINK-5121","OBJECT_ID":"2022-125AF","EPOCH":"2026-03-19T16:12:44.527104","MEAN_MOTION":15.08835551,"ECCENTRICITY":0.00010006,"INCLINATION":53.2157,"RA_OF_ASC_NODE":164.0455,"ARG_OF_PERICENTER":79.1263,"MEAN_ANOMALY":280.9842,"EPHEMERIS_TYPE":0,"CLASSIFICATION_TYPE":"U","NORAD_CAT_ID":53993,"ELEMENT_SET_NO":999,"REV_AT_EPOCH":19103,"BSTAR":-1.424205e-6,"MEAN_MOTION_DOT":-3.1e-6,"MEAN_MOTION_DDOT":0},{"OBJECT_NAME":"STARLINK-5125","OBJECT_ID":"2022-125AG","EPOCH":"2026-03-19T13:19:51.831264","MEAN_MOTION":15.08840536,"ECCENTRICITY":0.00012833,"INCLINATION":53.2162,"RA_OF_ASC_NODE":169.7094,"ARG_OF_PERICENTER":92.797,"MEAN_ANOMALY":267.3169,"EPHEMERIS_TYPE":0,"CLASSIFICATION_TYPE":"U","NORAD_CAT_ID":53994,"ELEMENT_SET_NO":999,"REV_AT_EPOCH":19095,"BSTAR":7.9892993e-5,"MEAN_MOTION_DOT":9.84e-6,"MEAN_MOTION_DDOT":0},{"OBJECT_NAME":"STARLINK-5097","OBJECT_ID":"2022-125AH","EPOCH":"2026-03-20T05:24:20.305728","MEAN_MOTION":15.08839876,"ECCENTRICITY":9.21e-5,"INCLINATION":53.2165,"RA_OF_ASC_NODE":166.7853,"ARG_OF_PERICENTER":92.1882,"MEAN_ANOMALY":267.9215,"EPHEMERIS_TYPE":0,"CLASSIFICATION_TYPE":"U","NORAD_CAT_ID":53995,"ELEMENT_SET_NO":999,"REV_AT_EPOCH":19104,"BSTAR":8.9574e-5,"MEAN_MOTION_DOT":1.138e-5,"MEAN_MOTION_DDOT":0},{"OBJECT_NAME":"STARLINK-5131","OBJECT_ID":"2022-125AJ","EPOCH":"2026-03-20T05:08:25.253088","MEAN_MOTION":15.08836067,"ECCENTRICITY":0.0001184,"INCLINATION":53.2168,"RA_OF_ASC_NODE":166.7146,"ARG_OF_PERICENTER":92.0416,"MEAN_ANOMALY":268.0711,"EPHEMERIS_TYPE":0,"CLASSIFICATION_TYPE":"U","NORAD_CAT_ID":53996,"ELEMENT_SET_NO":999,"REV_AT_EPOCH":19105,"BSTAR":3.2401e-5,"MEAN_MOTION_DOT":2.28e-6,"MEAN_MOTION_DDOT":0}]
